{
  "norad_id": 68075,
  "name": "STARLINK-37026",
  "history": [
    {
      "epoch": "2026-03-28T18:12:41.584032Z",
      "apogee_km": 344.71635663649704,
      "perigee_km": 342.868498236895,
      "latitude_deg": -3.620823087402572e-05,
      "longitude_deg": 0.25194852372530135,
      "height_km": 344.6517235769105,
      "semi_major_axis_km": 6721.929427436696,
      "eccentricity": 0.00013745,
      "inclination_deg": 53.1572,
      "raan_deg": 99.5999,
      "arg_perigee_deg": 86.5344,
      "mean_anomaly_deg": 273.5833,
      "mean_motion_rev_day": 15.75294799
    },
    {
      "epoch": "2026-03-29T04:52:13.476864Z",
      "apogee_km": 345.0430787760952,
      "perigee_km": 342.3503121976828,
      "latitude_deg": 4.856084699502684e-06,
      "longitude_deg": -162.2757514617318,
      "height_km": 345.7398731218893,
      "semi_major_axis_km": 6721.833695486889,
      "eccentricity": 0.0002003,
      "inclination_deg": 53.1565,
      "raan_deg": 97.3928,
      "arg_perigee_deg": 146.8887,
      "mean_anomaly_deg": 213.2259,
      "mean_motion_rev_day": 15.75328452
    },
    {
      "epoch": "2026-03-30T00:39:56.779200Z",
      "apogee_km": 344.3405395719283,
      "perigee_km": 341.84561896650393,
      "latitude_deg": 1.1129708830856976e-05,
      "longitude_deg": -104.1188393702877,
      "height_km": 344.97594227899395,
      "semi_major_axis_km": 6721.230079269216,
      "eccentricity": 0.0001856,
      "inclination_deg": 53.1562,
      "raan_deg": 93.2931,
      "arg_perigee_deg": 140.8561,
      "mean_anomaly_deg": 219.2594,
      "mean_motion_rev_day": 15.75540671
    },
    {
      "epoch": "2026-03-30T06:45:23.868000Z",
      "apogee_km": 344.43102200361955,
      "perigee_km": 343.0355617310279,
      "latitude_deg": -5.772488115406936e-05,
      "longitude_deg": 163.0069969721022,
      "height_km": 344.0457876272008,
      "semi_major_axis_km": 6721.870291867323,
      "eccentricity": 0.0001038,
      "inclination_deg": 53.1565,
      "raan_deg": 92.032,
      "arg_perigee_deg": 30.0867,
      "mean_anomaly_deg": 330.0212,
      "mean_motion_rev_day": 15.75315587
    },
    {
      "epoch": "2026-03-30T12:50:50.316576Z",
      "apogee_km": 344.5188276034878,
      "perigee_km": 342.65556565618135,
      "latitude_deg": 7.405882860757363e-05,
      "longitude_deg": 70.13505770710869,
      "height_km": 343.96704620586326,
      "semi_major_axis_km": 6721.724196629834,
      "eccentricity": 0.0001386,
      "inclination_deg": 53.1564,
      "raan_deg": 90.7703,
      "arg_perigee_deg": 54.9103,
      "mean_anomaly_deg": 305.2048,
      "mean_motion_rev_day": 15.75366946
    },
    {
      "epoch": "2026-03-31T13:12:38.864448Z",
      "apogee_km": 344.5970220132467,
      "perigee_km": 343.05540696963544,
      "latitude_deg": 3.479762447365619e-05,
      "longitude_deg": 58.63697416864936,
      "height_km": 344.2062801154442,
      "semi_major_axis_km": 6721.96321449144,
      "eccentricity": 0.00011467,
      "inclination_deg": 53.1559,
      "raan_deg": 85.7251,
      "arg_perigee_deg": 45.9771,
      "mean_anomaly_deg": 314.1344,
      "mean_motion_rev_day": 15.75282922
    },
    {
      "epoch": "2026-04-01T04:26:15.962208Z",
      "apogee_km": 344.6609257680411,
      "perigee_km": 343.18610569089014,
      "latitude_deg": -2.836975047489493e-07,
      "longitude_deg": -173.5462746135169,
      "height_km": 344.9977749504329,
      "semi_major_axis_km": 6722.060515729465,
      "eccentricity": 0.0001097,
      "inclination_deg": 53.1557,
      "raan_deg": 82.5718,
      "arg_perigee_deg": 102.4435,
      "mean_anomaly_deg": 257.6708,
      "mean_motion_rev_day": 15.75248719
    }
  ]
}